0 ORBCOMM FM 37
1 33064U 08031E   23282.80668097  .00004169  00000-0  63991-3 0  9990
2 33064  48.4422  22.7124 0006716 259.9188 246.1911 14.75193031823238
0 ORBCOMM FM 40
1 33065U 08031F   23282.77113076  .00004753  00000-0  70783-3 0  9995
2 33065  48.4447  14.1015 0008113 266.7326 235.3902 14.76246442823363
0 VESSELSAT 1
1 37840U 11058C   23282.52288288  .00000500  00000-0  12844-3 0  9994
2 37840  19.9613 224.4240 0013601 244.5525 115.3472 14.11068456619329
0 ORBCOMM FM 109
1 40086U 14040A   23282.51561954  .00001772  00000-0  43680-3 0  9991
2 40086  47.0055  43.4581 0001797 333.5210  26.5582 14.55968017491139
0 ORBCOMM FM 107
1 40087U 14040B   23282.61846146  .00001773  00000-0  43703-3 0  9999
2 40087  47.0071  43.9063 0001947 293.7927  66.2753 14.55966520491225
0 ORBCOMM FM 106
1 40088U 14040C   23282.47198480  .00002660  00000-0  51182-3 0  9991
2 40088  47.0599 273.2949 0017311  86.8561 273.4309 14.66074541492886
0 ORBCOMM FM 111
1 40089U 14040D   23282.15408532  .00004668  00000-0  63013-3 0  9995
2 40089  47.0038 200.5289 0032999 131.6584 228.7144 14.80093423498644
0 ORBCOMM FM 104
1 40090U 14040E   23282.78734869  .00001815  00000-0  45966-3 0  9999
2 40090  47.0061  69.6862 0017887 271.0536  88.8299 14.54525384490924
